NORAD_CAT_ID,OBJECT_NAME,OBJECT_TYPE,EPOCH,MEAN_MOTION,ECCENTRICITY,INCLINATION,RA_OF_ASC_NODE,ARG_OF_PERICENTER,MEAN_ANOMALY,BSTAR,MEAN_MOTION_DOT,MEAN_MOTION_DDOT,TLE_LINE0,TLE_LINE1,TLE_LINE2,SEMIMAJOR_AXIS,PERIOD,APOGEE,PERIGEE,DECAYED
55438.0,STARLINK-5074,PAYLOAD,2024-02-03 20:15:55,14.98326464,0.0003047,70.0003,192.7293,270.8085,89.2725,-1.9469e-05,-3.25e-06,0.0,0 STARLINK-5074,1 55438U 23014AZ  24034.84439300 -.00000325  00000-0 -19469-4 0  9994,2 55438  70.0003 192.7293 0003047 270.8085  89.2725 14.98326464 57499,6950.204,96.107,574.187,569.951,0.0
55438.0,STARLINK-5074,PAYLOAD,2024-02-04 04:16:38,14.98295206,0.0002992,70.0004,191.8877,276.079,84.0028,-0.00036485,-4.44e-05,0.0,0 STARLINK-5074,1 55438U 23014AZ  24035.17822683 -.00004440  00000-0 -36485-3 0  9999,2 55438  70.0004 191.8877 0002992 276.0790  84.0028 14.98295206 56607,6950.3,96.109,574.245,570.086,0.0
55438.0,STARLINK-5074,PAYLOAD,2024-02-04 13:53:25,14.98325908,0.0003032,70.0006,190.8781,270.2959,89.7852,-1.6574e-06,-1.13e-06,0.0,0 STARLINK-5074,1 55438U 23014AZ  24035.57876685 -.00000113  00000-0 -16574-5 0  9996,2 55438  70.0006 190.8781 0003032 270.2959  89.7852 14.98325908 57602,6950.206,96.107,574.178,569.963,0.0
55438.0,STARLINK-5074,PAYLOAD,2024-02-04 20:17:57,14.98330096,0.0003102,70.0006,190.2048,272.2014,87.879,5.0105e-05,5.05e-06,0.0,0 STARLINK-5074,1 55438U 23014AZ  24035.84580433  .00000505  00000-0  50105-4 0  9999,2 55438  70.0006 190.2048 0003102 272.2014  87.8790 14.98330096 56708,6950.193,96.107,574.214,569.902,0.0
55438.0,STARLINK-5074,PAYLOAD,2024-02-05 13:55:25,14.98334989,0.0003204,70.0008,188.3546,272.6435,87.4358,0.0002013,2.31e-05,0.0,0 STARLINK-5074,1 55438U 23014AZ  24036.58015590  .00002310  00000-0  20130-3 0  9998,2 55438  70.0008 188.3546 0003204 272.6435  87.4358 14.98334989 57752,6950.177,96.107,574.269,569.816,0.0
55438.0,STARLINK-5074,PAYLOAD,2024-02-05 20:19:57,14.98343977,0.0003187,70.0005,187.6808,273.2497,86.8298,0.0002512,2.907e-05,0.0,0 STARLINK-5074,1 55438U 23014AZ  24036.84718847  .00002907  00000-0  25120-3 0  9998,2 55438  70.0005 187.6808 0003187 273.2497  86.8298 14.98343977 56850,6950.15,96.106,574.23,569.8,0.0
55438.0,STARLINK-5074,PAYLOAD,2024-02-06 10:45:10,14.98321575,0.0003157,70.001,186.1652,283.5372,76.5435,0.000489,5.745e-05,0.0,0 STARLINK-5074,1 55438U 23014AZ  24037.44803646  .00005745  00000-0  48900-3 0  9991,2 55438  70.0010 186.1652 0003157 283.5372  76.5435 14.98321575 56949,6950.219,96.108,574.278,569.89,0.0
55438.0,STARLINK-5074,PAYLOAD,2024-02-06 13:57:26,14.98321341,0.0003191,70.001,185.8294,276.7485,83.3311,0.00051507,6.057e-05,0.0,0 STARLINK-5074,1 55438U 23014AZ  24037.58155526  .00006057  00000-0  51507-3 0  9997,2 55438  70.0010 185.8294 0003191 276.7485  83.3311 14.98321341 57901,6950.22,96.108,574.302,569.867,0.0
55438.0,STARLINK-5074,PAYLOAD,2024-02-06 20:21:58,14.98327511,0.0003049,70.0012,185.1567,273.9728,86.1083,0.00052696,6.2e-05,0.0,0 STARLINK-5074,1 55438U 23014AZ  24037.84859081  .00006200  00000-0  52696-3 0  9993,2 55438  70.0012 185.1567 0003049 273.9728  86.1083 14.98327511 57946,6950.201,96.107,574.185,569.946,0.0
55438.0,STARLINK-5074,PAYLOAD,2024-02-07 12:23:19,14.98339802,0.0002464,70.0032,183.4775,255.2076,104.8811,-0.00015597,-1.954e-05,0.0,0 STARLINK-5074,1 55438U 23014AZ  24038.51619426 -.00001954  00000-0 -15597-3 0  9997,2 55438  70.0032 183.4775 0002464 255.2076 104.8811 14.98339802 57100,6950.163,96.106,573.74,570.315,0.0
55438.0,STARLINK-5074,PAYLOAD,2024-02-07 13:59:27,14.98338648,0.0002495,70.0031,183.309,254.372,105.7163,-0.00016423,-2.052e-05,0.0,0 STARLINK-5074,1 55438U 23014AZ  24038.58295454 -.00002052  00000-0 -16423-3 0  9994,2 55438  70.0031 183.3090 0002495 254.3720 105.7163 14.98338648 58050,6950.166,96.106,573.765,570.297,0.0
55438.0,STARLINK-5074,PAYLOAD,2024-02-07 18:47:51,14.98337932,0.0002866,70.0018,182.8021,269.334,90.7491,-0.00018683,-2.322e-05,0.0,0 STARLINK-5074,1 55438U 23014AZ  24038.78323420 -.00002322  00000-0 -18683-3 0  9991,2 55438  70.0018 182.8021 0002866 269.3340  90.7491 14.98337932 58084,6950.168,96.106,574.025,570.041,0.0
55438.0,STARLINK-5074,PAYLOAD,2024-02-08 14:01:27,14.98339035,0.0003133,70.001,180.7811,272.3635,87.7165,-0.0001351,-1.705e-05,0.0,0 STARLINK-5074,1 55438U 23014AZ  24039.58434707 -.00001705  00000-0 -13510-3 0  9999,2 55438  70.0010 180.7811 0003133 272.3635  87.7165 14.98339035 58203,6950.165,96.106,574.207,569.852,0.0
55438.0,STARLINK-5074,PAYLOAD,2024-02-08 18:49:51,14.98341755,0.0002926,70.0012,180.276,267.433,92.6494,-7.5745e-05,-9.97e-06,0.0,0 STARLINK-5074,1 55438U 23014AZ  24039.78462212 -.00000997  00000-0 -75745-4 0  9994,2 55438  70.0012 180.2760 0002926 267.4330  92.6494 14.98341755 57299,6950.157,96.106,574.055,569.988,0.0
55438.0,STARLINK-5074,PAYLOAD,2024-02-09 10:51:12,14.98326604,0.000282,70.001,178.5916,264.8214,95.2623,3.0558e-05,2.72e-06,0.0,0 STARLINK-5074,1 55438U 23014AZ  24040.45222657  .00000272  00000-0  30558-4 0  9994,2 55438  70.0010 178.5916 0002820 264.8214  95.2623 14.98326604 57395,6950.203,96.107,574.028,570.108,0.0
55438.0,STARLINK-5074,PAYLOAD,2024-02-09 14:03:28,14.98326612,0.0002823,70.001,178.255,264.9641,95.1196,2.9266e-05,2.56e-06,0.0,0 STARLINK-5074,1 55438U 23014AZ  24040.58574682  .00000256  00000-0  29266-4 0  9992,2 55438  70.0010 178.2550 0002823 264.9641  95.1196 14.98326612 58354,6950.203,96.107,574.03,570.106,0.0
55438.0,STARLINK-5074,PAYLOAD,2024-02-10 12:29:21,14.98329559,0.0002799,70.0012,175.8993,263.2286,96.8555,-4.6039e-05,-6.42e-06,0.0,0 STARLINK-5074,1 55438U 23014AZ  24041.52038671 -.00000642  00000-0 -46039-4 0  9998,2 55438  70.0012 175.8993 0002799 263.2286  96.8555 14.98329559 57550,6950.194,96.107,574.005,570.114,0.0
55438.0,STARLINK-5074,PAYLOAD,2024-02-10 14:05:29,14.98329292,0.0002912,70.0009,175.7315,264.4527,95.63,-4.6284e-05,-6.45e-06,0.0,0 STARLINK-5074,1 55438U 23014AZ  24041.58714692 -.00000645  00000-0 -46284-4 0  9993,2 55438  70.0009 175.7315 0002912 264.4527  95.6300 14.98329292 58506,6950.195,96.107,574.084,570.036,0.0
55438.0,STARLINK-5074,PAYLOAD,2024-02-10 18:53:52,14.98345226,0.0002859,70.0014,175.2296,248.2136,111.8719,0.00012973,1.456e-05,0.0,0 STARLINK-5074,1 55438U 23014AZ  24041.78741033  .00001456  00000-0  12973-3 0  9990,2 55438  70.0014 175.2296 0002859 248.2136 111.8719 14.98345226 57599,6950.146,96.106,573.998,570.024,0.0
55438.0,STARLINK-5074,PAYLOAD,2024-02-11 12:31:22,14.98325635,0.0003156,70.0009,173.375,272.0751,88.0047,-7.8342e-05,-1.028e-05,0.0,0 STARLINK-5074,1 55438U 23014AZ  24042.52178763 -.00001028  00000-0 -78342-4 0  9997,2 55438  70.0009 173.3750 0003156 272.0751  88.0047 14.98325635 57700,6950.206,96.107,574.265,569.878,0.0
55438.0,STARLINK-5074,PAYLOAD,2024-02-11 18:55:54,14.98331366,0.0002829,70.0011,172.7017,263.7196,96.3641,-1.2488e-05,-2.42e-06,0.0,0 STARLINK-5074,1 55438U 23014AZ  24042.78882186 -.00000242  00000-0 -12488-4 0  9992,2 55438  70.0011 172.7017 0002829 263.7196  96.3641 14.98331366 57742,6950.189,96.107,574.02,570.087,0.0
55438.0,STARLINK-5074,PAYLOAD,2024-02-12 14:09:31,14.98327395,0.0002591,70.0019,170.6827,255.2148,104.8724,3.6178e-05,3.39e-06,0.0,0 STARLINK-5074,1 55438U 23014AZ  24043.58994278  .00000339  00000-0  36178-4 0  9994,2 55438  70.0019 170.6827 0002591 255.2148 104.8724 14.98327395 58807,6950.201,96.107,573.867,570.265,0.0
55438.0,STARLINK-5074,PAYLOAD,2024-02-12 15:45:38,14.98336433,0.0002502,70.0018,170.514,257.1331,102.9549,-5.7177e-05,-7.75e-06,0.0,0 STARLINK-5074,1 55438U 23014AZ  24043.65669935 -.00000775  00000-0 -57177-4 0  9999,2 55438  70.0018 170.5140 0002502 257.1331 102.9549 14.98336433 58818,6950.173,96.107,573.777,570.299,0.0
55438.0,STARLINK-5074,PAYLOAD,2024-02-13 10:59:16,14.98321407,0.0002685,70.0021,168.4944,259.5331,100.5525,-1.8514e-05,-3.14e-06,0.0,0 STARLINK-5074,1 55438U 23014AZ  24044.45782771 -.00000314  00000-0 -18514-4 0  9993,2 55438  70.0021 168.4944 0002685 259.5331 100.5525 14.98321407 57999,6950.219,96.108,573.951,570.218,0.0
55438.0,STARLINK-5074,PAYLOAD,2024-02-13 14:11:32,14.98323381,0.0003228,70.0,168.1554,267.24,92.8389,-5.6458e-05,-7.66e-06,0.0,0 STARLINK-5074,1 55438U 23014AZ  24044.59134789 -.00000766  00000-0 -56458-4 0  9998,2 55438  70.0000 168.1554 0003228 267.2400  92.8389 14.98323381 58958,6950.213,96.107,574.322,569.835,0.0
55438.0,STARLINK-5074,PAYLOAD,2024-02-13 17:23:46,14.98340226,0.0003919,70.0002,167.819,260.7858,99.2858,0.00018163,2.075e-05,0.0,0 STARLINK-5074,1 55438U 23014AZ  24044.72484918  .00002075  00000-0  18163-3 0  9998,2 55438  70.0002 167.8190 0003919 260.7858  99.2858 14.98340226 58032,6950.161,96.106,574.75,569.302,0.0
55438.0,STARLINK-5074,PAYLOAD,2024-02-14 11:01:17,14.98328927,0.0003253,69.9999,165.967,273.5262,86.5525,-3.5686e-05,-5.19e-06,0.0,0 STARLINK-5074,1 55438U 23014AZ  24045.45922569 -.00000519  00000-0 -35686-4 0  9991,2 55438  69.9999 165.9670 0003253 273.5262  86.5525 14.98328927 58144,6950.196,96.107,574.322,569.8,0.0
55438.0,STARLINK-5074,PAYLOAD,2024-02-14 14:13:32,14.98336328,0.0003011,70.0002,165.6312,266.1277,93.9537,6.2566e-05,6.54e-06,0.0,0 STARLINK-5074,1 55438U 23014AZ  24045.59273760  .00000654  00000-0  62566-4 0  9993,2 55438  70.0002 165.6312 0003011 266.1277  93.9537 14.98336328 59104,6950.173,96.107,574.131,569.946,0.0
55438.0,STARLINK-5074,PAYLOAD,2024-02-14 17:25:48,14.9833883,0.0003142,70.0004,165.2953,272.6319,87.448,6.5934e-05,6.94e-06,0.0,0 STARLINK-5074,1 55438U 23014AZ  24045.72625630  .00000694  00000-0  65934-4 0  9991,2 55438  70.0004 165.2953 0003142 272.6319  87.4480 14.98338830 58189,6950.166,96.106,574.214,569.847,0.0
55438.0,STARLINK-5074,PAYLOAD,2024-02-15 11:03:18,14.98320837,0.0003271,70.0003,163.4433,267.3858,92.6926,-9.3087e-06,-2.04e-06,0.0,0 STARLINK-5074,1 55438U 23014AZ  24046.46063074 -.00000204  00000-0 -93087-5 0  9991,2 55438  70.0003 163.4433 0003271 267.3858  92.6926 14.98320837 58296,6950.221,96.108,574.36,569.813,0.0
